station,time,metar
WARR,2026-02-23 11:39:34.692460,WARR 230430Z 26010KT 9999 FEW020 32/25 Q1007 NOSIG
WARR,2026-02-23 12:06:28.301801,WARR 230500Z 29009KT 9999 FEW020 32/24 Q1006 NOSIG
WARR,2026-02-23 12:35:53.418568,WARR 230530Z 27008KT 9999 FEW020 33/24 Q1006 NOSIG
WARR,2026-02-23 13:07:04.974786,WARR 230600Z 29008KT 9999 FEW020CB 33/24 Q1005 NOSIG
