time,metar,temp,qnh
2026-03-06 01:48:42.332874,WARR 060130Z 27013KT 9999 FEW020 30/25 Q1007 NOSIG,30,1007
2026-03-06 02:05:43.236584,WARR 060200Z 28013KT 9999 FEW020 31/25 Q1007 NOSIG,31,1007
2026-03-06 02:36:21.686627,WARR 060230Z 28014KT 9999 FEW020 31/25 Q1007 NOSIG,31,1007
2026-03-06 03:06:21.722494,WARR 060300Z 28014G22KT 9999 FEW020 31/25 Q1007 NOSIG,31,1007
2026-03-06 03:35:51.522545,WARR 060330Z 29014KT 9999 FEW020 32/25 Q1006 NOSIG,32,1006
