station,time,metar
WARR,2026-02-23 16:30 UTC,WARR 231630Z 26006KT 5000 -RA SCT020 26/24 Q1007 NOSIG
WARR,2026-02-23 17:00 UTC,WARR 231700Z 24004KT 5000 HZ SCT020 26/24 Q1007 NOSIG
WARR,2026-02-23 17:30 UTC,WARR 231730Z 23003KT 5000 HZ SCT020 26/24 Q1007 NOSIG
